NORAD_CAT_ID,OBJECT_NAME,OBJECT_TYPE,EPOCH,MEAN_MOTION,ECCENTRICITY,INCLINATION,RA_OF_ASC_NODE,ARG_OF_PERICENTER,MEAN_ANOMALY,BSTAR,MEAN_MOTION_DOT,MEAN_MOTION_DDOT,TLE_LINE0,TLE_LINE1,TLE_LINE2,SEMIMAJOR_AXIS,PERIOD,APOGEE,PERIGEE,DECAYED
52367.0,STARLINK-3817,PAYLOAD,2022-06-14 22:00:00,15.73132529,0.0002837,53.2135,208.4461,15.5556,156.2807,0.00052224,0.0007311,0.0,0 STARLINK-3817,1 52367U 22045AN  22165.91667824  .00073110  00000-0  52224-3 0  9995,2 52367  53.2135 208.4461 0002837  15.5556 156.2807 15.73132529  9798,6728.0880000000025,91.537,351.861,348.0440000000001,0.0
52367.0,STARLINK-3817,PAYLOAD,2022-06-15 14:00:01,15.73216086,0.0003122,53.2135,205.1493,13.7186,335.897,-8.4558e-05,-0.00012484,0.0,0 STARLINK-3817,1 52367U 22045AN  22166.58334491 -.00012484  00000-0 -84558-4 0  9995,2 52367  53.2135 205.1493 0003122  13.7186 335.8970 15.73216086  9892,6727.849,91.532,351.815,347.61400000000015,0.0
52367.0,STARLINK-3817,PAYLOAD,2022-06-15 22:00:00,15.7316884,0.0002858,53.2138,203.4975,12.9814,65.6063,0.00064416,0.00090654,0.0,0 STARLINK-3817,1 52367U 22045AN  22166.91667824  .00090654  00000-0  64416-3 0  9994,2 52367  53.2138 203.4975 0002858  12.9814  65.6063 15.73168840  1308,6727.984,91.535,351.772,347.926,0.0
52367.0,STARLINK-3817,PAYLOAD,2022-06-16 02:00:01,15.73201748,0.0002867,53.2138,202.6723,14.9998,288.0421,0.00058006,0.00081599,0.0,0 STARLINK-3817,1 52367U 22045AN  22167.08334491  .00081599  00000-0  58006-3 0  9990,2 52367  53.2138 202.6723 0002867  14.9998 288.0421 15.73201748  1309,6727.89,91.533,351.684,347.826,0.0
52367.0,STARLINK-3817,PAYLOAD,2022-06-19 14:00:01,15.73236118,0.0003115,53.214,185.3539,7.8594,328.9861,-0.00027347,-0.00038896,0.0,0 STARLINK-3817,1 52367U 22045AN  22170.58334491 -.00038896  00000-0 -27347-3 0  9997,2 52367  53.2140 185.3539 0003115   7.8594 328.9861 15.73236118  1305,6727.792,91.531,351.75300000000016,347.561,0.0
52367.0,STARLINK-3817,PAYLOAD,2022-06-19 20:00:01,15.73184593,0.0002934,53.2145,184.115,8.8989,304.668,0.00038892,0.00054287,0.0,0 STARLINK-3817,1 52367U 22045AN  22170.83334491  .00054287  00000-0  38892-3 0  9992,2 52367  53.2145 184.1150 0002934   8.8989 304.6680 15.73184593 10560,6727.939,91.534,351.778,347.83,0.0
52367.0,STARLINK-3817,PAYLOAD,2022-06-19 22:00:00,15.73200438,0.0002926,53.2144,183.7022,10.252,55.5444,0.00020175,0.00027791,0.0,0 STARLINK-3817,1 52367U 22045AN  22170.91667824  .00027791  00000-0  20175-3 0  9995,2 52367  53.2144 183.7022 0002926  10.2520  55.5444 15.73200438  1300,6727.894,91.533,351.728,347.79,0.0
52367.0,STARLINK-3817,PAYLOAD,2022-06-20 06:00:00,15.73194164,0.0003137,53.2144,182.0541,13.6276,141.1264,2.2388000000000007e-05,2.52e-05,0.0,0 STARLINK-3817,1 52367U 22045AN  22171.25001157  .00002520  00000-0  22388-4 0  9996,2 52367  53.2144 182.0541 0003137  13.6276 141.1264 15.73194164 10634,6727.9119999999975,91.534,351.88699999999994,347.666,0.0
52367.0,STARLINK-3817,PAYLOAD,2022-06-20 14:00:01,15.73213244,0.0003174,53.2137,180.4049,12.7842,230.8741,-0.00042218,-0.00059507,0.0,0 STARLINK-3817,1 52367U 22045AN  22171.58334491 -.00059507  00000-0 -42218-3 0  9994,2 52367  53.2137 180.4049 0003174  12.7842 230.8741 15.73213244  1302,6727.857,91.532,351.858,347.587,0.0
52367.0,STARLINK-3817,PAYLOAD,2022-06-20 22:00:00,15.73149023,0.0002874,53.214,178.7536,13.1537,319.4344,0.00072394,0.00102011,0.0,0 STARLINK-3817,1 52367U 22045AN  22171.91667824  .00102011  00000-0  72394-3 0  9995,2 52367  53.2140 178.7536 0002874  13.1537 319.4344 15.73149023  1305,6728.041,91.536,351.839,347.972,0.0
52367.0,STARLINK-3817,PAYLOAD,2022-06-21 14:00:01,15.73355459,0.0003045,53.2152,175.4555,11.3952,139.0484,-0.0026515,-0.00359825,0.0,0 STARLINK-3817,1 52367U 22045AN  22172.58334491 -.00359825  00000-0 -26515-2 0  9992,2 52367  53.2152 175.4555 0003045  11.3952 139.0484 15.73355459 10847,6727.4519999999975,91.524,351.365,347.26800000000014,0.0
52367.0,STARLINK-3817,PAYLOAD,2022-06-21 22:00:00,15.7321663,0.0002921,53.2144,173.8048,13.5606,225.8644,-0.00011959,-0.00017388,0.0,0 STARLINK-3817,1 52367U 22045AN  22172.91667824 -.00017388  00000-0 -11959-3 0  9990,2 52367  53.2144 173.8048 0002921  13.5606 225.8644 15.73216630  1309,6727.848000000001,91.532,351.67800000000005,347.74800000000016,0.0
52367.0,STARLINK-3817,PAYLOAD,2022-06-22 00:00:02,15.73211652,0.0002926,53.2147,173.3925,15.4431,336.284,-4.9938e-05,-7.63e-05,0.0,0 STARLINK-3817,1 52367U 22045AN  22173.00002315 -.00007630  00000-0 -49938-4 0  9997,2 52367  53.2147 173.3925 0002926  15.4431 336.2840 15.73211652 10914,6727.861999999999,91.533,351.696,347.7580000000001,0.0
52367.0,STARLINK-3817,PAYLOAD,2022-06-22 14:00:01,15.73182305,0.0003138,53.2137,170.5073,13.9157,43.3875,6.2183e-05,8.108e-05,0.0,0 STARLINK-3817,1 52367U 22045AN  22173.58334491  .00008108  00000-0  62183-4 0  9999,2 52367  53.2137 170.5073 0003138  13.9157  43.3875 15.73182305  1309,6727.946,91.534,351.922,347.699,0.0
52367.0,STARLINK-3817,PAYLOAD,2022-06-22 22:00:00,15.7321371,0.0002867,53.2138,168.8562,17.4963,128.7303,1.0621e-06,-4.74e-06,0.0,0 STARLINK-3817,1 52367U 22045AN  22173.91667824 -.00000474  00000-0  10621-5 0  9995,2 52367  53.2138 168.8562 0002867  17.4963 128.7303 15.73213710  1304,6727.856,91.532,351.65,347.792,0.0
52367.0,STARLINK-3817,PAYLOAD,2022-06-23 06:00:00,15.73180225,0.0003138,53.2139,167.2087,19.0912,216.0759,0.00024398,0.00033734,0.0,0 STARLINK-3817,1 52367U 22045AN  22174.25001157  .00033734  00000-0  24398-3 0  9992,2 52367  53.2139 167.2087 0003138  19.0912 216.0759 15.73180225 11103,6727.9519999999975,91.534,351.92800000000005,347.705,0.0
52367.0,STARLINK-3817,PAYLOAD,2022-06-23 14:00:01,15.73287449,0.000296,53.2153,165.5574,9.6081,314.4786,-0.0022616,-0.00307958,0.0,0 STARLINK-3817,1 52367U 22045AN  22174.58334491 -.00307958  00000-0 -22616-2 0  9992,2 52367  53.2153 165.5574 0002960   9.6081 314.4786 15.73287449 11159,6727.646,91.528,351.50199999999984,347.519,0.0
52367.0,STARLINK-3817,PAYLOAD,2022-06-23 22:00:00,15.73191037,0.000279,53.2142,163.9073,10.033,43.028,0.00023745,0.00032825,0.0,0 STARLINK-3817,1 52367U 22045AN  22174.91667824  .00032825  00000-0  23745-3 0  9999,2 52367  53.2142 163.9073 0002790  10.0330  43.0280 15.73191037 11215,6727.920999999999,91.534,351.663,347.909,0.0
52367.0,STARLINK-3817,PAYLOAD,2022-06-24 14:00:01,15.73177363,0.0003084,53.2135,160.6096,14.028,216.8852,-1.1262e-05,-2.202e-05,0.0,0 STARLINK-3817,1 52367U 22045AN  22175.58334491 -.00002202  00000-0 -11262-4 0  9994,2 52367  53.2135 160.6096 0003084  14.0280 216.8852 15.73177363 11313,6727.96,91.534,351.9,347.75,0.0
52367.0,STARLINK-3817,PAYLOAD,2022-06-24 22:00:01,15.73198644,0.000281,53.2137,158.9586,15.4756,304.4032,3.2781e-05,3.981e-05,0.0,0 STARLINK-3817,1 52367U 22045AN  22175.91668981  .00003981  00000-0  32781-4 0  9997,2 52367  53.2137 158.9586 0002810  15.4756 304.4032 15.73198644  1305,6727.899,91.533,351.655,347.874,0.0
52367.0,STARLINK-3817,PAYLOAD,2022-06-25 14:00:01,15.73195394,0.0002988,53.2138,155.661,12.1229,125.495,2.081e-05,2.298e-05,0.0,0 STARLINK-3817,1 52367U 22045AN  22176.58334491  .00002298  00000-0  20810-4 0  9997,2 52367  53.2138 155.6610 0002988  12.1229 125.4950 15.73195394  1302,6727.908,91.533,351.784,347.76300000000015,0.0
52367.0,STARLINK-3817,PAYLOAD,2022-06-25 22:00:00,15.7320424,0.0002803,53.2142,154.0099,14.8471,211.7005,0.00052969,0.00074402,0.0,0 STARLINK-3817,1 52367U 22045AN  22176.91667824  .00074402  00000-0  52969-3 0  9998,2 52367  53.2142 154.0099 0002803  14.8471 211.7005 15.73204240 11521,6727.8830000000025,91.533,351.634,347.862,0.0
52367.0,STARLINK-3817,PAYLOAD,2022-06-26 14:00:01,15.73276269,0.0002981,53.2137,150.7117,13.5698,31.0018,-0.00064129,-0.00089985,0.0,0 STARLINK-3817,1 52367U 22045AN  22177.58335648 -.00089985  00000-0 -64129-3 0  9993,2 52367  53.2137 150.7117 0002981  13.5698  31.0018 15.73276269 11632,6727.678000000001,91.529,351.548,347.537,0.0
52367.0,STARLINK-3817,PAYLOAD,2022-06-26 20:00:01,15.73202685,0.0002993,53.2172,149.4705,17.1951,3.8978,1.2219e-05,1.093e-05,0.0,0 STARLINK-3817,1 52367U 22045AN  22177.83334491  .00001093  00000-0  12219-4 0  9992,2 52367  53.2172 149.4705 0002993  17.1951   3.8978 15.73202685 11671,6727.888000000001,91.533,351.766,347.73900000000015,0.0
52367.0,STARLINK-3817,PAYLOAD,2022-06-26 22:00:00,15.73203785,0.0002973,53.2175,149.0582,17.9072,115.418,1.4163e-05,1.366e-05,0.0,0 STARLINK-3817,1 52367U 22045AN  22177.91667824  .00001366  00000-0  14163-4 0  9993,2 52367  53.2175 149.0582 0002973  17.9072 115.4180 15.73203785  1309,6727.884,91.533,351.75,347.749,0.0
52367.0,STARLINK-3817,PAYLOAD,2022-06-27 06:00:00,15.73200508,0.0003038,53.2141,147.4138,15.4081,206.9866,-0.00014849,-0.00021415,0.0,0 STARLINK-3817,1 52367U 22045AN  22178.25001157 -.00021415  00000-0 -14849-3 0  9991,2 52367  53.2141 147.4138 0003038  15.4081 206.9866 15.73200508 11732,6727.894,91.533,351.80300000000005,347.715,0.0
52367.0,STARLINK-3817,PAYLOAD,2022-06-27 14:00:01,15.73220209,0.0002923,53.2142,145.763,15.896,295.4131,-0.00065196,-0.00091238,0.0,0 STARLINK-3817,1 52367U 22045AN  22178.58334491 -.00091238  00000-0 -65196-3 0  9998,2 52367  53.2142 145.7630 0002923  15.8960 295.4131 15.73220209  1303,6727.8380000000025,91.532,351.6690000000001,347.736,0.0
52367.0,STARLINK-3817,PAYLOAD,2022-06-27 22:00:00,15.73165741,0.0002864,53.2148,144.1125,21.7397,18.487,0.00043028,0.00060119,0.0,0 STARLINK-3817,1 52367U 22045AN  22178.91667824  .00060119  00000-0  43028-3 0  9996,2 52367  53.2148 144.1125 0002864  21.7397  18.4870 15.73165741  1307,6727.993,91.535,351.785,347.931,0.0
52367.0,STARLINK-3817,PAYLOAD,2022-06-28 06:00:00,15.7317443,0.0003133,53.2148,142.4651,20.2651,108.8543,0.00032102,0.0004463,0.0,0 STARLINK-3817,1 52367U 22045AN  22179.25001157  .00044630  00000-0  32102-3 0  9996,2 52367  53.2148 142.4651 0003133  20.2651 108.8543 15.73174430 11890,6727.968000000003,91.535,351.941,347.725,0.0
